IRIDIUM 144             
1 43249U 18030A   23317.75088114  .00000221  00000+0  71807-4 0  9995
2 43249  86.3945 325.9722 0002308  92.3960 267.7500 14.34213761294487
IRIDIUM 149             
1 43250U 18030B   23317.54791808  .00000158  00000+0  49343-4 0  9994
2 43250  86.3944 326.0345 0002455  93.8225 266.3251 14.34212869294479
IRIDIUM 157             
1 43251U 18030C   23317.77624117  .00000204  00000+0  65683-4 0  9995
2 43251  86.3944 325.9712 0002011  88.8221 271.3205 14.34216801294480
IRIDIUM 140             
1 43252U 18030D   23317.72550639  .00000223  00000+0  72579-4 0  9991
2 43252  86.3946 326.0072 0002318  99.6918 260.4539 14.34215346294535
IRIDIUM 145             
1 43253U 18030E   23317.50351843  .00000195  00000+0  62566-4 0  9997
2 43253  86.3946 326.0745 0002539  94.4262 265.7224 14.34212593294432
IRIDIUM 146             
1 43254U 18030F   23317.55425195  .00000241  00000+0  78835-4 0  9993
2 43254  86.3945 326.0686 0002524  91.7898 268.3587 14.34216568294454
IRIDIUM 148             
1 43255U 18030G   23317.73185512  .00000216  00000+0  69947-4 0  9996
2 43255  86.3947 326.0233 0002484  86.4586 273.6894 14.34213690294515
IRIDIUM 142             
1 43256U 18030H   23317.76990762  .00000207  00000+0  66894-4 0  9999
2 43256  86.3942 325.9306 0002392  87.9272 272.2197 14.34213235294488
